ONEWEB-0385             
1 49311U 21090AJ  24088.91891507 -.00000044  00000+0 -13951-3 0  9993
2 49311  87.9145  75.6839 0002348  83.7979 276.3422 13.20772929122847
ONEWEB-0386             
1 49312U 21090AK  24089.23930499  .00000077  00000+0  15793-3 0  9994
2 49312  87.9138  75.6200 0002184  80.4683 279.6696 13.20773640124219
ONEWEB-0387             
1 49313U 21090AL  24088.92051634  .00000060  00000+0  11605-3 0  9995
2 49313  87.9143  75.7407 0002278  91.8518 268.2876 13.20770324122862
ONEWEB-0388             
1 49314U 21090AM  24088.77467442  .00000041  00000+0  70002-4 0  9993
2 49314  87.9103 106.2864 0002026  86.4718 273.6646 13.19726442119523
ONEWEB-0389             
1 50469U 21132A   24089.18770025  .00000103  00000+0  23205-3 0  9994
2 50469  87.9248 167.0273 0002512 106.8702 253.2705 13.17647710112706
ONEWEB-0390             
1 50470U 21132B   24089.18928675  .00000175  00000+0  41786-3 0  9995
2 50470  87.9247 167.0350 0002157 113.8173 246.3185 13.17649060112703
ONEWEB-0391             
1 50471U 21132C   24089.19086991  .00000099  00000+0  22140-3 0  9991
2 50471  87.9255 167.0112 0002483 101.6182 258.5229 13.17648626112707
ONEWEB-0392             
1 50472U 21132D   24089.22095077  .00000161  00000+0  38129-3 0  9995
2 50472  87.9243 167.0177 0002385 106.4820 253.6574 13.17652541112743
